STARLINK-11354 [DTC]    
1 61532U 24184A   26068.67370347  .00003495  00000+0  33663-4 0  9990
2 61532  53.1597 236.4315 0000899  81.1877 278.9243 15.69731521 80419
ISS OBJECT XU           
1 66908U 98067XU  26068.19895314  .00161175  00000+0  13351-2 0  9996
2 66908  51.6248  68.1144 0004893  76.6698 283.4844 15.69191892 15108
