[{"OBJECT_NAME":"STARLINK-11354 [DTC]","OBJECT_ID":"2024-184A","EPOCH":"2026-03-09T16:10:07.979808","MEAN_MOTION":15.69731521,"ECCENTRICITY":8.992e-5,"INCLINATION":53.1597,"RA_OF_ASC_NODE":236.4315,"ARG_OF_PERICENTER":81.1877,"MEAN_ANOMALY":278.9243,"EPHEMERIS_TYPE":0,"CLASSIFICATION_TYPE":"U","NORAD_CAT_ID":61532,"ELEMENT_SET_NO":999,"REV_AT_EPOCH":8041,"BSTAR":3.3663194e-5,"MEAN_MOTION_DOT":3.495e-5,"MEAN_MOTION_DDOT":0},{"OBJECT_NAME":"ISS OBJECT XU","OBJECT_ID":"1998-067XU","EPOCH":"2026-03-09T04:46:29.551296","MEAN_MOTION":15.69191892,"ECCENTRICITY":0.00048935,"INCLINATION":51.6248,"RA_OF_ASC_NODE":68.1144,"ARG_OF_PERICENTER":76.6698,"MEAN_ANOMALY":283.4844,"EPHEMERIS_TYPE":0,"CLASSIFICATION_TYPE":"U","NORAD_CAT_ID":66908,"ELEMENT_SET_NO":999,"REV_AT_EPOCH":1510,"BSTAR":0.0013351438,"MEAN_MOTION_DOT":0.00161175,"MEAN_MOTION_DDOT":0}]
